NORAD_CAT_ID,OBJECT_NAME,OBJECT_TYPE,EPOCH,MEAN_MOTION,ECCENTRICITY,INCLINATION,RA_OF_ASC_NODE,ARG_OF_PERICENTER,MEAN_ANOMALY,BSTAR,MEAN_MOTION_DOT,MEAN_MOTION_DDOT,TLE_LINE0,TLE_LINE1,TLE_LINE2,SEMIMAJOR_AXIS,PERIOD,APOGEE,PERIGEE,DECAYED
56494.0,STARLINK-5530,PAYLOAD,2023-05-16 16:00:00,15.90829348,0.0025193,69.9995,229.0529,159.002,316.14,-0.0029093,-0.00936272,0.00026444,0 STARLINK-5530,1 56494U 23064AY  23136.66667824 -.00936272  26444-3 -29093-2 0  9992,2 56494  69.9995 229.0529 0025193 159.0020 316.1400 15.90829348  1301,6678.098,90.519,316.787,283.139,0.0
56494.0,STARLINK-5530,PAYLOAD,2023-05-16 22:00:00,15.90355792,0.0022957,69.9992,228.3282,159.315,306.931,-0.0031409,-0.00981325,0.00028712,0 STARLINK-5530,1 56494U 23064AY  23136.91667824 -.00981325  28712-3 -31409-2 0  9993,2 56494  69.9992 228.3282 0022957 159.3150 306.9310 15.90355792  1335,6679.423,90.546,316.622,285.955,0.0
56494.0,STARLINK-5530,PAYLOAD,2023-05-17 22:00:00,15.88406076,0.0013652,69.9985,225.4351,163.2927,262.9799,-0.0035725,-0.00996284,0.00028972,0 STARLINK-5530,1 56494U 23064AY  23137.91667824 -.00996284  28972-3 -35725-2 0  9997,2 56494  69.9985 225.4351 0013652 163.2927 262.9799 15.88406076  1498,6684.888,90.657,315.879,297.627,0.0
56494.0,STARLINK-5530,PAYLOAD,2023-05-18 14:00:01,15.87095445,0.0007807,69.9985,223.5107,172.4568,103.2575,-0.0037443,-0.00886425,0.0,0 STARLINK-5530,1 56494U 23064AY  23138.58334491 -.00886425  00000-0 -37443-2 0  9995,2 56494  69.9985 223.5107 0007807 172.4568 103.2575 15.87095445  1306,6688.568,90.732,315.655,305.211,0.0
56494.0,STARLINK-5530,PAYLOAD,2023-05-18 22:00:00,15.86451205,0.0005537,69.9986,222.55,183.8666,195.393,-0.0039666,-0.00905839,0.0,0 STARLINK-5530,1 56494U 23064AY  23138.91667824 -.00905839  00000-0 -39666-2 0  9991,2 56494  69.9986 222.5500 0005537 183.8666 195.3930 15.86451205  1650,6690.379,90.769,315.948,308.539,0.0
56494.0,STARLINK-5530,PAYLOAD,2023-05-19 22:00:01,15.84436901,0.0003204,69.9994,219.6741,250.7462,74.5438,-0.0036129,-0.00759523,0.0,0 STARLINK-5530,1 56494U 23064AY  23139.91668981 -.00759523  00000-0 -36129-2 0  9995,2 56494  69.9994 219.6741 0003204 250.7462  74.5438 15.84436901  1813,6696.048,90.884,320.058,315.767,0.0
56494.0,STARLINK-5530,PAYLOAD,2023-05-20 06:00:00,15.83738593,0.0003339,70.0,218.7181,262.3828,163.2509,0.0017865,0.00414182,0.0,0 STARLINK-5530,1 56494U 23064AY  23140.25001157  .00414182  00000-0  17865-2 0  9993,2 56494  70.0000 218.7181 0003339 262.3828 163.2509 15.83738593  1867,6698.016,90.924,322.117,317.644,0.0
56494.0,STARLINK-5530,PAYLOAD,2023-05-20 10:16:20,15.83682966,0.0003713,69.9986,218.2046,277.4425,82.6356,-0.00088617,-0.00191716,0.0,0 STARLINK-5530,1 56494U 23064AY  23140.42801754 -.00191716  00000-0 -88617-3 0  9994,2 56494  69.9986 218.2046 0003713 277.4425  82.6356 15.83682966  1897,6698.173,90.927,322.525,317.551,0.0
56494.0,STARLINK-5530,PAYLOAD,2023-05-21 06:00:00,15.81930916,0.0004062,69.9981,215.8497,268.1869,93.9836,-0.0052801,-0.00963378,0.0,0 STARLINK-5530,1 56494U 23064AY  23141.25001157 -.00963378  00000-0 -52801-2 0  9991,2 56494  69.9981 215.8497 0004062 268.1869  93.9836 15.81930916  2025,6703.117,91.028,327.705,322.26,0.0
56494.0,STARLINK-5530,PAYLOAD,2023-05-21 14:00:01,15.81216217,0.0003683,69.9975,214.8958,276.0649,183.4159,-0.0048153,-0.00859894,0.0,0 STARLINK-5530,1 56494U 23064AY  23141.58334491 -.00859894  00000-0 -48153-2 0  9999,2 56494  69.9975 214.8958 0003683 276.0649 183.4159 15.81216217  1305,6705.137,91.069,329.472,324.533,0.0
56494.0,STARLINK-5530,PAYLOAD,2023-05-21 22:00:00,15.80572746,0.0003478,69.9972,213.943,269.8694,286.119,-0.00517,-0.00892616,0.0,0 STARLINK-5530,1 56494U 23064AY  23141.91667824 -.00892616  00000-0 -51700-2 0  9996,2 56494  69.9972 213.9430 0003478 269.8694 286.1190 15.80572746  2138,6706.957,91.106,331.155,326.489,0.0
56494.0,STARLINK-5530,PAYLOAD,2023-05-22 14:00:01,15.79267216,0.0003454,69.9974,212.0404,273.8394,112.8128,-0.0053795,-0.00876462,0.0,0 STARLINK-5530,1 56494U 23064AY  23142.58334491 -.00876462  00000-0 -53795-2 0  9998,2 56494  69.9974 212.0404 0003454 273.8394 112.8128 15.79267216  2235,6710.653,91.182,334.836,330.2,0.0
56494.0,STARLINK-5530,PAYLOAD,2023-05-22 22:00:00,15.78601773,0.000331,69.9972,211.0906,270.5792,210.2412,-0.0054759,-0.00866554,0.0,0 STARLINK-5530,1 56494U 23064AY  23142.91667824 -.00866554  00000-0 -54759-2 0  9996,2 56494  69.9972 211.0906 0003310 270.5792 210.2412 15.78601773  1301,6712.538,91.22,336.625,332.182,0.0
56494.0,STARLINK-5530,PAYLOAD,2023-05-23 06:00:00,15.78010321,0.0003351,69.9974,210.142,266.9557,307.2219,-0.0062601,-0.0095454,0.0,0 STARLINK-5530,1 56494U 23064AY  23143.25001157 -.00954540  00000-0 -62601-2 0  9993,2 56494  69.9974 210.1420 0003351 266.9557 307.2219 15.78010321  2347,6714.216,91.254,338.331,333.831,0.0
56494.0,STARLINK-5530,PAYLOAD,2023-05-23 22:00:00,15.76642095,0.0003526,69.9966,208.2466,271.6192,126.9883,-0.005934,-0.00860767,0.0,0 STARLINK-5530,1 56494U 23064AY  23143.91667824 -.00860767  00000-0 -59340-2 0  9998,2 56494  69.9966 208.2466 0003526 271.6192 126.9883 15.76642095  2449,6718.099,91.333,342.333,337.596,0.0
56494.0,STARLINK-5530,PAYLOAD,2023-05-24 14:00:01,15.75350435,0.0003445,69.9967,206.355,274.9215,305.0249,-0.0063649,-0.00871009,0.0,0 STARLINK-5530,1 56494U 23064AY  23144.58335648 -.00871009  00000-0 -63649-2 0  9996,2 56494  69.9967 206.3550 0003445 274.9215 305.0249 15.75350435  2556,6721.771,91.408,345.952,341.321,0.0
56494.0,STARLINK-5530,PAYLOAD,2023-05-24 22:00:00,15.74682004,0.0003543,69.9967,205.4105,269.1425,40.2116,-0.0064203,-0.00854963,0.0,0 STARLINK-5530,1 56494U 23064AY  23144.91667824 -.00854963  00000-0 -64203-2 0  9994,2 56494  69.9967 205.4105 0003543 269.1425  40.2116 15.74682004  1302,6723.673,91.447,347.92,343.156,0.0
56494.0,STARLINK-5530,PAYLOAD,2023-05-25 04:00:01,15.74252603,0.000367,69.9971,204.703,266.4382,19.5428,-0.0072105,-0.009336,0.0,0 STARLINK-5530,1 56494U 23064AY  23145.16668981 -.00933600  00000-0 -72105-2 0  9993,2 56494  69.9971 204.7030 0003670 266.4382  19.5428 15.74252603  2640,6724.896,91.472,349.229,344.293,0.0
56494.0,STARLINK-5530,PAYLOAD,2023-05-25 14:00:01,15.73380526,0.000367,69.997,203.5246,276.128,209.8094,-0.006775,-0.00852991,0.0,0 STARLINK-5530,1 56494U 23064AY  23145.58334491 -.00852991  00000-0 -67750-2 0  9998,2 56494  69.9970 203.5246 0003670 276.1280 209.8094 15.73380526  1300,6727.381,91.523,351.714,346.777,0.0
56494.0,STARLINK-5530,PAYLOAD,2023-05-25 22:00:00,15.72730381,0.0003585,69.9968,202.5829,269.7729,303.2836,-0.0070591,-0.00863193,0.0,0 STARLINK-5530,1 56494U 23064AY  23145.91667824 -.00863193  00000-0 -70591-2 0  9997,2 56494  69.9968 202.5829 0003585 269.7729 303.2836 15.72730381  1304,6729.234,91.561,353.512,348.687,0.0
56494.0,STARLINK-5530,PAYLOAD,2023-05-26 06:00:00,15.72135746,0.0003743,69.9969,201.6422,268.9296,30.4462,-0.0080825,-0.00968304,0.0,0 STARLINK-5530,1 56494U 23064AY  23146.25001157 -.00968304  00000-0 -80825-2 0  9997,2 56494  69.9969 201.6422 0003743 268.9296  30.4462 15.72135746  2815,6730.931,91.595,355.316,350.277,0.0
56494.0,STARLINK-5530,PAYLOAD,2023-05-26 14:00:01,15.71439103,0.0003679,69.9966,200.7022,276.977,107.9622,-0.0075186,-0.00869584,0.0,0 STARLINK-5530,1 56494U 23064AY  23146.58334491 -.00869584  00000-0 -75186-2 0  9997,2 56494  69.9966 200.7022 0003679 276.9770 107.9622 15.71439103  1306,6732.92,91.636,357.262,352.308,0.0
56494.0,STARLINK-5530,PAYLOAD,2023-05-26 22:00:01,15.70751776,0.000348,69.9968,199.7631,272.0558,197.7372,-0.007285,-0.00823031,0.0,0 STARLINK-5530,1 56494U 23064AY  23146.91668981 -.00823031  00000-0 -72850-2 0  9990,2 56494  69.9968 199.7631 0003480 272.0558 197.7372 15.70751776  2922,6734.884,91.676,359.093,354.405,0.0
56494.0,STARLINK-5530,PAYLOAD,2023-05-27 06:00:02,15.70009301,0.000341,69.9975,198.8252,270.095,283.6859,-0.0011831,-0.00140614,0.0,0 STARLINK-5530,1 56494U 23064AY  23147.25002315 -.00140614  00000-0 -11831-2 0  9992,2 56494  69.9975 198.8252 0003410 270.0950 283.6859 15.70009301  2976,6737.007,91.719,361.17,356.575,0.0
56494.0,STARLINK-5530,PAYLOAD,2023-05-27 14:00:01,15.69903804,0.0003438,69.9978,197.8876,275.2182,1.8785,0.00020744,0.00024783,0.0,0 STARLINK-5530,1 56494U 23064AY  23147.58334491  .00024783  00000-0  20744-3 0  9991,2 56494  69.9978 197.8876 0003438 275.2182   1.8785 15.69903804  3028,6737.309,91.725,361.491,356.858,0.0
56494.0,STARLINK-5530,PAYLOAD,2023-05-27 22:00:00,15.69888178,0.0003442,69.9981,196.9506,269.5408,90.8845,0.00052478,0.00063272,0.0,0 STARLINK-5530,1 56494U 23064AY  23147.91667824  .00063272  00000-0  52478-3 0  9992,2 56494  69.9981 196.9506 0003442 269.5408  90.8845 15.69888178  1304,6737.354,91.726,361.538,356.9,0.0
56494.0,STARLINK-5530,PAYLOAD,2023-05-28 06:00:00,15.69978543,0.0003542,69.9986,196.0135,271.4581,172.2792,-0.00084326,-0.00100634,0.0,0 STARLINK-5530,1 56494U 23064AY  23148.25001157 -.00100634  00000-0 -84326-3 0  9994,2 56494  69.9986 196.0135 0003542 271.4581 172.2792 15.69978543  1305,6737.095,91.721,361.347,356.574,0.0
56494.0,STARLINK-5530,PAYLOAD,2023-05-28 14:00:01,15.69913772,0.0003539,69.9985,195.0761,276.2986,250.807,0.00013401,0.00015925,0.0,0 STARLINK-5530,1 56494U 23064AY  23148.58334491  .00015925  00000-0  13401-3 0  9992,2 56494  69.9985 195.0761 0003539 276.2986 250.8070 15.69913772  3189,6737.281,91.725,361.53,356.761,0.0
56494.0,STARLINK-5530,PAYLOAD,2023-05-28 22:00:00,15.69876133,0.0003532,69.9992,194.1389,269.9168,340.5426,0.00043613,0.00052454,0.0,0 STARLINK-5530,1 56494U 23064AY  23148.91667824  .00052454  00000-0  43613-3 0  9994,2 56494  69.9992 194.1389 0003532 269.9168 340.5426 15.69876133  1300,6737.388,91.727,361.633,356.874,0.0
56494.0,STARLINK-5530,PAYLOAD,2023-05-29 04:34:59,15.69840419,0.000331,69.9987,193.368,271.6508,88.4308,-0.00042296,-0.0005059,0.0,0 STARLINK-5530,1 56494U 23064AY  23149.19096762 -.00050590  00000-0 -42296-3 0  9999,2 56494  69.9987 193.3680 0003310 271.6508  88.4308 15.69840419  3274,6737.491,91.729,361.586,357.125,0.0
